BEESAT-4                
1 41619U 16040W   21185.38209370  .00002549  00000-0  10298-3 0  9994
2 41619  97.2685 240.9983 0008786 271.2216  88.8015 15.25617947267591
CAS-2T & KS-1Q          
1 41847U 16066G   21185.45108460  .00000220  00000-0  42970-4 0  9998
2 41847  98.6002 244.6533 0365554 169.4839 191.4267 14.38204486244321
NAYIF-1 (EO-88)         
1 42017U 17008BX  21185.45403572  .00002978  00000-0  11067-3 0  9991
2 42017  97.3151 252.7496 0007312  58.9866 301.2091 15.28291572243852
ZHUHAI-1 02 (CAS-4B)    
1 42759U 17034B   21185.61994529  .00000529  00000-0  45093-4 0  9995
2 42759  43.0178  86.7009 0009998 276.1463 155.9304 15.10249777223744
ZHUHAI-1 01 (CAS-4A)    
1 42761U 17034D   21185.60953069  .00000540  00000-0  45647-4 0  9999
2 42761  43.0179  85.8016 0010422 276.0471 153.8536 15.10337154223749
MAX VALIER SAT          
1 42778U 17036P   21185.44491402  .00001873  00000-0  80780-4 0  9996
2 42778  97.2537 233.4983 0013563 113.5559 246.7105 15.23676505223879
RADFXSAT (FOX-1B)       
1 43017U 17073E   21185.44315413  .00000487  00000-0  43489-4 0  9996
2 43017  97.7057  88.7586 0253421 244.8429 112.6305 14.79589032195634
FOX-1D (AO-92)          
1 43137U 18004AC  21185.45524910  .00001988  00000-0  81695-4 0  9997
2 43137  97.4062 259.3133 0009817 143.0486 217.1430 15.25330419193256
DIWATA-2B               
1 43678U 18084H   21185.55798292 -.00000240  00000-0 -18006-4 0  9990
2 43678  97.9262 310.9259 0010094   2.9632 357.1652 14.91757215145988
ES'HAIL 2               
1 43700U 18090A   21185.57544494  .00000151  00000-0  00000-0 0  9998
2 43700   0.0252  29.7032 0001182 106.5057  19.5400  1.00270220  9545
FOX-1CLIFF (AO-95)      
1 43770U 18099N   21185.44661513  .00000170  00000-0  20568-4 0  9998
2 43770  97.6641 255.2582 0014532   6.9748 353.1672 14.95346144140995
ITASAT 1                
1 43786U 18099AE  21185.42941126  .00000228  00000-0  25666-4 0  9992
2 43786  97.6664 255.9313 0015077   0.4079 359.7151 14.95640326141025
JY1SAT (JO-97)          
1 43803U 18099AX  21185.45734286  .00000496  00000-0  49429-4 0  9992
2 43803  97.6620 255.7085 0014835 359.5821   0.5386 14.95887022141033
UWE-4                   
1 43880U 18111E   21185.29589948  .00001105  00000-0  10119-3 0  9998
2 43880  97.6866  92.7415 0013699  52.8565 307.3906 14.96896412137609
NEXUS (FO-99)           
1 43937U 19003F   21185.56998135  .00002325  00000-0  93042-4 0  9996
2 43937  97.1750 228.0658 0021673 315.0489  44.8995 15.25839269136871
PSAT2 (NO-104)          
1 44354U 19036R   21185.57981735  .00024255  00000-0  31885-3 0  9997
2 44354  28.5282  12.8279 0323440 101.7103 261.9962 15.14118249111573
BRICSAT2 (NO-103)       
1 44355U 19036S   21185.55669965  .00051546 -55113-5  53903-3 0  9993
2 44355  28.5272 325.0897 0257479 179.4891 180.6002 15.31209924112058
JAISAT-1                
1 44419U 19038F   21185.42779567  .00001475  00000-0  85068-4 0  9995
2 44419  97.5891 150.0673 0019330 252.8551 107.0564 15.13823048110368
DUCHIFAT-3              
1 44854U 19089C   21185.50688741  .00000624  00000-0  56170-4 0  9993
2 44854  36.9688 359.7816 0009757 281.2506  78.7147 14.99525905 85666
CAS-6 (TO-108)          
1 44881U 19093C   21185.48792137  .00000087  00000-0  17951-4 0  9997
2 44881  97.9237 264.1305 0013797 235.0503 124.9412 14.81460364 83258
RS-44 & BREEZE-KM R/B   
1 44909U 19096E   21185.51497989  .00000009  00000-0 -12085-4 0  9990
2 44909  82.5218 101.4789 0218484  53.3705 308.7270 12.79710634 71009
ORBITAL FACTORY 2 (OF-2)
1 45113U 19071C   21185.58350972  .00003598  00000-0  11212-3 0  9993
2 45113  51.6425 314.4483 0011791 357.8811   2.2120 15.35904126 79805
HUSKYSAT-1 (HO-107)     
1 45119U 19071J   21185.52960028  .00002792  00000-0  89442-4 0  9998
2 45119  51.6421 314.0828 0011180 354.4519   5.6339 15.35923192 79797
BY70-2                  
1 45857U 20042B   21185.44541619  .00001402  00000-0  20559-3 0  9999
2 45857  97.9832 261.0156 0012156 151.9829 208.2046 14.77081272 54055
SALSAT                  
1 46495U 20068K   21185.56553096  .00001163  00000-0  89634-4 0  9995
2 46495  97.6928 122.9577 0017337  18.6763 341.5093 15.03485421 41908
BY70-3                  
1 46839U 20079N   21185.54521300  .00004057  00000-0  12634-3 0  9990
2 46839  97.2392 259.0618 0008289 136.3727 336.8501 15.33811217 36828
RADFXSAT-2 (AO-109)     
1 47311U 21002C   21185.50774198  .00001283  00000-0  67309-4 0  9992
2 47311  60.6856 227.3532 0039215  57.6990 302.7885 15.21714874 25469
UVSQ-SAT                
1 47438U 21006AB  21185.44281703  .00001276  00000-0  75450-4 0  9992
2 47438  97.4862 246.3620 0013823  45.3512 314.8844 15.13183757 24621
DIY-1 (ARDUIQUBE)       
1 47963U 21022AH  21185.48923917  .00002630  00000-0  17768-3 0  9999
2 47963  97.5570  87.5214 0017917 245.7208 114.2148 15.07332312 14467
